CCSDS_OMM_VERS = 2.0
CREATION_DATE  = 
ORIGINATOR     = 

OBJECT_NAME    = SL-3 R/B
OBJECT_ID      = 1982-079B
CENTER_NAME    = EARTH
REF_FRAME      = TEME
TIME_SYSTEM    = UTC
MEAN_ELEMENT_THEORY = SGP/SGP4

EPOCH          = 2026-03-18T20:29:17.963232
MEAN_MOTION    = 15.24928296
ECCENTRICITY   = .0025376
INCLINATION    = 81.1491
RA_OF_ASC_NODE = 182.2576
ARG_OF_PERICENTER = 134.3833
MEAN_ANOMALY   = 225.9485

EPHEMERIS_TYPE = 0
CLASSIFICATION_TYPE = U
NORAD_CAT_ID   = 13403
ELEMENT_SET_NO = 999
REV_AT_EPOCH   = 37909
BSTAR          = .1997E-3
MEAN_MOTION_DOT = .5043E-4
MEAN_MOTION_DDOT = 0

CCSDS_OMM_VERS = 2.0
CREATION_DATE  = 
ORIGINATOR     = 

OBJECT_NAME    = SL-14 R/B
OBJECT_ID      = 1982-092B
CENTER_NAME    = EARTH
REF_FRAME      = TEME
TIME_SYSTEM    = UTC
MEAN_ELEMENT_THEORY = SGP/SGP4

EPOCH          = 2026-03-18T21:15:05.863392
MEAN_MOTION    = 14.86674758
ECCENTRICITY   = .001875
INCLINATION    = 82.5676
RA_OF_ASC_NODE = 132.7981
ARG_OF_PERICENTER = 270.7026
MEAN_ANOMALY   = 262.8261

EPHEMERIS_TYPE = 0
CLASSIFICATION_TYPE = U
NORAD_CAT_ID   = 13553
ELEMENT_SET_NO = 999
REV_AT_EPOCH   = 33029
BSTAR          = .40727E-4
MEAN_MOTION_DOT = .387E-5
MEAN_MOTION_DDOT = 0

CCSDS_OMM_VERS = 2.0
CREATION_DATE  = 
ORIGINATOR     = 

OBJECT_NAME    = SL-3 R/B
OBJECT_ID      = 1983-010B
CENTER_NAME    = EARTH
REF_FRAME      = TEME
TIME_SYSTEM    = UTC
MEAN_ELEMENT_THEORY = SGP/SGP4

EPOCH          = 2026-03-18T18:06:27.869472
MEAN_MOTION    = 15.46667885
ECCENTRICITY   = .0017123
INCLINATION    = 81.1066
RA_OF_ASC_NODE = 351.1329
ARG_OF_PERICENTER = 21.2163
MEAN_ANOMALY   = 338.9788

EPHEMERIS_TYPE = 0
CLASSIFICATION_TYPE = U
NORAD_CAT_ID   = 13819
ELEMENT_SET_NO = 999
REV_AT_EPOCH   = 35934
BSTAR          = .2615E-3
MEAN_MOTION_DOT = .13159E-3
MEAN_MOTION_DDOT = 0

CCSDS_OMM_VERS = 2.0
CREATION_DATE  = 
ORIGINATOR     = 

OBJECT_NAME    = SL-3 R/B
OBJECT_ID      = 1983-075B
CENTER_NAME    = EARTH
REF_FRAME      = TEME
TIME_SYSTEM    = UTC
MEAN_ELEMENT_THEORY = SGP/SGP4

EPOCH          = 2026-03-18T20:34:58.359360
MEAN_MOTION    = 15.38628955
ECCENTRICITY   = .002108
INCLINATION    = 97.6135
RA_OF_ASC_NODE = 82.7830
ARG_OF_PERICENTER = 191.6355
MEAN_ANOMALY   = 168.4405

EPHEMERIS_TYPE = 0
CLASSIFICATION_TYPE = U
NORAD_CAT_ID   = 14208
ELEMENT_SET_NO = 999
REV_AT_EPOCH   = 33156
BSTAR          = .22698E-3
MEAN_MOTION_DOT = .8636E-4
MEAN_MOTION_DDOT = 0

CCSDS_OMM_VERS = 2.0
CREATION_DATE  = 
ORIGINATOR     = 

OBJECT_NAME    = COSMOS 1536
OBJECT_ID      = 1984-013A
CENTER_NAME    = EARTH
REF_FRAME      = TEME
TIME_SYSTEM    = UTC
MEAN_ELEMENT_THEORY = SGP/SGP4

EPOCH          = 2026-03-18T18:45:21.710592
MEAN_MOTION    = 15.23943528
ECCENTRICITY   = .0012595
INCLINATION    = 82.5412
RA_OF_ASC_NODE = 98.8094
ARG_OF_PERICENTER = 247.1206
MEAN_ANOMALY   = 112.8701

EPHEMERIS_TYPE = 0
CLASSIFICATION_TYPE = U
NORAD_CAT_ID   = 14699
ELEMENT_SET_NO = 999
REV_AT_EPOCH   = 27400
BSTAR          = .22058E-3
MEAN_MOTION_DOT = .5375E-4
MEAN_MOTION_DDOT = 0

CCSDS_OMM_VERS = 2.0
CREATION_DATE  = 
ORIGINATOR     = 

OBJECT_NAME    = SL-14 R/B
OBJECT_ID      = 1984-027B
CENTER_NAME    = EARTH
REF_FRAME      = TEME
TIME_SYSTEM    = UTC
MEAN_ELEMENT_THEORY = SGP/SGP4

EPOCH          = 2026-03-18T17:11:30.529248
MEAN_MOTION    = 14.85985966
ECCENTRICITY   = .001674
INCLINATION    = 82.5397
RA_OF_ASC_NODE = 236.5451
ARG_OF_PERICENTER = 306.5277
MEAN_ANOMALY   = 53.4398

EPHEMERIS_TYPE = 0
CLASSIFICATION_TYPE = U
NORAD_CAT_ID   = 14820
ELEMENT_SET_NO = 999
REV_AT_EPOCH   = 24897
BSTAR          = .53019E-4
MEAN_MOTION_DOT = .488E-5
MEAN_MOTION_DDOT = 0

CCSDS_OMM_VERS = 2.0
CREATION_DATE  = 
ORIGINATOR     = 

OBJECT_NAME    = SL-8 R/B
OBJECT_ID      = 1985-006B
CENTER_NAME    = EARTH
REF_FRAME      = TEME
TIME_SYSTEM    = UTC
MEAN_ELEMENT_THEORY = SGP/SGP4

EPOCH          = 2026-03-18T18:19:08.656032
MEAN_MOTION    = 14.37789919
ECCENTRICITY   = .0018071
INCLINATION    = 74.0436
RA_OF_ASC_NODE = 244.4503
ARG_OF_PERICENTER = 159.8269
MEAN_ANOMALY   = 211.7636

EPHEMERIS_TYPE = 0
CLASSIFICATION_TYPE = U
NORAD_CAT_ID   = 15483
ELEMENT_SET_NO = 999
REV_AT_EPOCH   = 15533
BSTAR          = .11215E-3
MEAN_MOTION_DOT = .312E-5
MEAN_MOTION_DDOT = 0

CCSDS_OMM_VERS = 2.0
CREATION_DATE  = 
ORIGINATOR     = 

OBJECT_NAME    = SL-12 R/B(2)
OBJECT_ID      = 1985-042D
CENTER_NAME    = EARTH
REF_FRAME      = TEME
TIME_SYSTEM    = UTC
MEAN_ELEMENT_THEORY = SGP/SGP4

EPOCH          = 2026-03-18T17:17:01.066272
MEAN_MOTION    = 14.21984958
ECCENTRICITY   = .003298
INCLINATION    = 71.1067
RA_OF_ASC_NODE = 68.6479
ARG_OF_PERICENTER = 113.2302
MEAN_ANOMALY   = 59.0909

EPHEMERIS_TYPE = 0
CLASSIFICATION_TYPE = U
NORAD_CAT_ID   = 15772
ELEMENT_SET_NO = 999
REV_AT_EPOCH   = 11567
BSTAR          = .2498E-4
MEAN_MOTION_DOT = .8E-7
MEAN_MOTION_DDOT = 0

CCSDS_OMM_VERS = 2.0
CREATION_DATE  = 
ORIGINATOR     = 

OBJECT_NAME    = SL-14 R/B
OBJECT_ID      = 1985-069B
CENTER_NAME    = EARTH
REF_FRAME      = TEME
TIME_SYSTEM    = UTC
MEAN_ELEMENT_THEORY = SGP/SGP4

EPOCH          = 2026-03-18T21:36:27.537408
MEAN_MOTION    = 14.86443474
ECCENTRICITY   = .001931
INCLINATION    = 82.5299
RA_OF_ASC_NODE = 16.2738
ARG_OF_PERICENTER = 157.3835
MEAN_ANOMALY   = 202.8237

EPHEMERIS_TYPE = 0
CLASSIFICATION_TYPE = U
NORAD_CAT_ID   = 15945
ELEMENT_SET_NO = 999
REV_AT_EPOCH   = 17420
BSTAR          = .51069E-4
MEAN_MOTION_DOT = .477E-5
MEAN_MOTION_DDOT = 0

CCSDS_OMM_VERS = 2.0
CREATION_DATE  = 
ORIGINATOR     = 

OBJECT_NAME    = SL-16 R/B
OBJECT_ID      = 1985-097B
CENTER_NAME    = EARTH
REF_FRAME      = TEME
TIME_SYSTEM    = UTC
MEAN_ELEMENT_THEORY = SGP/SGP4

EPOCH          = 2026-03-18T21:44:22.028928
MEAN_MOTION    = 14.16599677
ECCENTRICITY   = .0009628
INCLINATION    = 71.0013
RA_OF_ASC_NODE = 121.1518
ARG_OF_PERICENTER = 248.5184
MEAN_ANOMALY   = 284.7392

EPHEMERIS_TYPE = 0
CLASSIFICATION_TYPE = U
NORAD_CAT_ID   = 16182
ELEMENT_SET_NO = 999
REV_AT_EPOCH   = 8853
BSTAR          = .155E-3
MEAN_MOTION_DOT = .261E-5
MEAN_MOTION_DDOT = 0

CCSDS_OMM_VERS = 2.0
CREATION_DATE  = 
ORIGINATOR     = 

OBJECT_NAME    = SL-14 R/B
OBJECT_ID      = 1986-006B
CENTER_NAME    = EARTH
REF_FRAME      = TEME
TIME_SYSTEM    = UTC
MEAN_ELEMENT_THEORY = SGP/SGP4

EPOCH          = 2026-03-18T21:00:00.609984
MEAN_MOTION    = 14.86828214
ECCENTRICITY   = .0075224
INCLINATION    = 82.5238
RA_OF_ASC_NODE = 251.0896
ARG_OF_PERICENTER = 241.7642
MEAN_ANOMALY   = 117.5967

EPHEMERIS_TYPE = 0
CLASSIFICATION_TYPE = U
NORAD_CAT_ID   = 16496
ELEMENT_SET_NO = 999
REV_AT_EPOCH   = 15057
BSTAR          = .70773E-4
MEAN_MOTION_DOT = .69E-5
MEAN_MOTION_DDOT = 0

CCSDS_OMM_VERS = 2.0
CREATION_DATE  = 
ORIGINATOR     = 

OBJECT_NAME    = COSMOS 1743
OBJECT_ID      = 1986-034A
CENTER_NAME    = EARTH
REF_FRAME      = TEME
TIME_SYSTEM    = UTC
MEAN_ELEMENT_THEORY = SGP/SGP4

EPOCH          = 2026-03-18T16:37:44.444928
MEAN_MOTION    = 15.59229399
ECCENTRICITY   = .0002224
INCLINATION    = 82.5284
RA_OF_ASC_NODE = 64.3748
ARG_OF_PERICENTER = 212.2868
MEAN_ANOMALY   = 147.8252

EPHEMERIS_TYPE = 0
CLASSIFICATION_TYPE = U
NORAD_CAT_ID   = 16719
ELEMENT_SET_NO = 999
REV_AT_EPOCH   = 18165
BSTAR          = .43059E-3
MEAN_MOTION_DOT = .33889E-3
MEAN_MOTION_DDOT = 0

