SL-3 R/B                
1 13403U 82079B   26077.85368013  .00005043  00000+0  19970-3 0  9993
2 13403  81.1491 182.2576 0025376 134.3833 225.9485 15.24928296379097
SL-14 R/B               
1 13553U 82092B   26077.88548453  .00000387  00000+0  40727-4 0  9996
2 13553  82.5676 132.7981 0018750 270.7026 262.8261 14.86674758330299
SL-3 R/B                
1 13819U 83010B   26077.75448923  .00013159  00000+0  26150-3 0  9993
2 13819  81.1066 351.1329 0017123  21.2163 338.9788 15.46667885359345
SL-3 R/B                
1 14208U 83075B   26077.85761990  .00008636  00000+0  22698-3 0  9997
2 14208  97.6135  82.7830 0021080 191.6355 168.4405 15.38628955331565
COSMOS 1536             
1 14699U 84013A   26077.78150128  .00005375  00000+0  22058-3 0  9998
2 14699  82.5412  98.8094 0012595 247.1206 112.8701 15.23943528274000
SL-14 R/B               
1 14820U 84027B   26077.71632557  .00000488  00000+0  53019-4 0  9995
2 14820  82.5397 236.5451 0016740 306.5277  53.4398 14.85985966248978
SL-8 R/B                
1 15483U 85006B   26077.76329463  .00000312  00000+0  11215-3 0  9990
2 15483  74.0436 244.4503 0018071 159.8269 211.7636 14.37789919155337
SL-12 R/B(2)            
1 15772U 85042D   26077.72015123  .00000008  00000+0  24980-4 0  9998
2 15772  71.1067  68.6479 0032980 113.2302  59.0909 14.21984958115673
SL-14 R/B               
1 15945U 85069B   26077.90031872  .00000477  00000+0  51069-4 0  9996
2 15945  82.5299  16.2738 0019310 157.3835 202.8237 14.86443474174207
SL-16 R/B               
1 16182U 85097B   26077.90581052  .00000261  00000+0  15500-3 0  9991
2 16182  71.0013 121.1518 0009628 248.5184 284.7392 14.16599677 88532
SL-14 R/B               
1 16496U 86006B   26077.87500706  .00000690  00000+0  70773-4 0  9993
2 16496  82.5238 251.0896 0075224 241.7642 117.5967 14.86828214150571
COSMOS 1743             
1 16719U 86034A   26077.69287552  .00033889  00000+0  43059-3 0  9995
2 16719  82.5284  64.3748 0002224 212.2868 147.8252 15.59229399181650
